{"fetched_at":"2026-03-30T06:02:59Z","count":15439,"tles":[{"name":"STARLINK-3625","line1":"1 51777U 22017K   26087.73941865  .00000489  00000+0  48814-4 0  9994","line2":"2 51777  53.2170 253.5739 0001392  91.3484 268.7668 15.08840354225476","category":"Starlink"}]}